[{"OBJECT_NAME":"YAOGAN-14","OBJECT_ID":"2012-021A","EPOCH":"2026-03-09T23:13:16.463424","MEAN_MOTION":15.26486019,"ECCENTRICITY":0.00056417,"INCLINATION":97.2863,"RA_OF_ASC_NODE":208.4378,"ARG_OF_PERICENTER":161.6562,"MEAN_ANOMALY":198.4882,"EPHEMERIS_TYPE":0,"CLASSIFICATION_TYPE":"U","NORAD_CAT_ID":38257,"ELEMENT_SET_NO":999,"REV_AT_EPOCH":77067,"BSTAR":0.00037795498,"MEAN_MOTION_DOT":9.798e-5,"MEAN_MOTION_DDOT":0},{"OBJECT_NAME":"STARLINK-32637","OBJECT_ID":"2024-216A","EPOCH":"2026-03-09T12:23:09.361248","MEAN_MOTION":15.27599792,"ECCENTRICITY":9.67e-5,"INCLINATION":42.9983,"RA_OF_ASC_NODE":256.9137,"ARG_OF_PERICENTER":222.7896,"MEAN_ANOMALY":137.288,"EPHEMERIS_TYPE":0,"CLASSIFICATION_TYPE":"U","NORAD_CAT_ID":62032,"ELEMENT_SET_NO":999,"REV_AT_EPOCH":7385,"BSTAR":0.0010629212,"MEAN_MOTION_DOT":0.0002912,"MEAN_MOTION_DDOT":0}]
